{
  "type": "FeatureCollection",
  "features": [
    {
      "type": "Feature",
      "properties": {
        "norad_id": 46435,
        "name": "IRIDIUM 33 DEB",
        "group": "iridium-33-debris",
        "lat": 0.3588386685911604,
        "lon": 17.57973036912717,
        "alt_km": 873.6301971839712,
        "timestamp": "2025-12-04T05:42:43.758007+00:00",
        "meta_object_name": "IRIDIUM 33 DEB",
        "meta_object_id": "1997-051ABN",
        "meta_epoch": "2025-12-01T21:34:01.840224",
        "meta_mean_motion": 14.31281633,
        "meta_eccentricity": 0.02132677,
        "meta_inclination": 86.2832,
        "meta_ra_of_asc_node": 198.6078,
        "meta_arg_of_pericenter": 311.3277,
        "meta_mean_anomaly": 63.4086,
        "meta_ephemeris_type": 0,
        "meta_classification_type": "U",
        "meta_norad_cat_id": 46435,
        "meta_element_set_no": 999,
        "meta_rev_at_epoch": 7761,
        "meta_bstar": 0.0078564893,
        "meta_mean_motion_dot": 0.00026766,
        "meta_mean_motion_ddot": 0,
        "tle_line1": "1 46435U 97051ABN 25335.89863241  .00026766  00000+0  78565-2 0  9992",
        "tle_line2": "2 46435  86.2832 198.6078 0213267 311.3277  63.4086 14.31281633 77617"
      },
      "geometry": {
        "type": "Point",
        "coordinates": [
          17.57973036912717,
          0.3588386685911604
        ]
      }
    },
    {
      "type": "Feature",
      "properties": {
        "norad_id": 46734,
        "name": "IRIDIUM 33 DEB",
        "group": "iridium-33-debris",
        "lat": 70.49276566163185,
        "lon": 17.224532366337318,
        "alt_km": 734.6147253384306,
        "timestamp": "2025-12-04T05:42:43.758018+00:00",
        "meta_object_name": "IRIDIUM 33 DEB",
        "meta_object_id": "1997-051ABR",
        "meta_epoch": "2025-12-03T20:12:35.443296",
        "meta_mean_motion": 14.41795233,
        "meta_eccentricity": 0.00394426,
        "meta_inclination": 86.2642,
        "meta_ra_of_asc_node": 6.7702,
        "meta_arg_of_pericenter": 5.4679,
        "meta_mean_anomaly": 171.2392,
        "meta_ephemeris_type": 0,
        "meta_classification_type": "U",
        "meta_norad_cat_id": 46734,
        "meta_element_set_no": 999,
        "meta_rev_at_epoch": 62882,
        "meta_bstar": 0.0014594249,
        "meta_mean_motion_dot": 4.83e-05,
        "meta_mean_motion_ddot": 0,
        "tle_line1": "1 46734U 97051ABR 25337.84207689  .00004830  00000+0  14594-2 0  9999",
        "tle_line2": "2 46734  86.2642   6.7702 0039442   5.4679 171.2392 14.41795233628829"
      },
      "geometry": {
        "type": "Point",
        "coordinates": [
          17.224532366337318,
          70.49276566163185
        ]
      }
    },
    {
      "type": "Feature",
      "properties": {
        "norad_id": 46965,
        "name": "IRIDIUM 33 DEB",
        "group": "iridium-33-debris",
        "lat": 5.47153542033542,
        "lon": -15.178551509587061,
        "alt_km": 681.0866640432241,
        "timestamp": "2025-12-04T05:42:43.758028+00:00",
        "meta_object_name": "IRIDIUM 33 DEB",
        "meta_object_id": "1997-051ABX",
        "meta_epoch": "2025-12-01T19:17:57.587136",
        "meta_mean_motion": 14.60159185,
        "meta_eccentricity": 0.00196274,
        "meta_inclination": 86.3356,
        "meta_ra_of_asc_node": 345.5484,
        "meta_arg_of_pericenter": 10.7692,
        "meta_mean_anomaly": 169.2127,
        "meta_ephemeris_type": 0,
        "meta_classification_type": "U",
        "meta_norad_cat_id": 46965,
        "meta_element_set_no": 999,
        "meta_rev_at_epoch": 62108,
        "meta_bstar": 0.00078040871,
        "meta_mean_motion_dot": 3.788e-05,
        "meta_mean_motion_ddot": 0,
        "tle_line1": "1 46965U 97051ABX 25335.80413874  .00003788  00000+0  78041-3 0  9993",
        "tle_line2": "2 46965  86.3356 345.5484 0019627  10.7692 169.2127 14.60159185621081"
      },
      "geometry": {
        "type": "Point",
        "coordinates": [
          -15.178551509587061,
          5.47153542033542
        ]
      }
    },
    {
      "type": "Feature",
      "properties": {
        "norad_id": 46971,
        "name": "IRIDIUM 33 DEB",
        "group": "iridium-33-debris",
        "lat": 23.92106943744287,
        "lon": -21.262029879017412,
        "alt_km": 571.2369003293934,
        "timestamp": "2025-12-04T05:42:43.758038+00:00",
        "meta_object_name": "IRIDIUM 33 DEB",
        "meta_object_id": "1997-051ACD",
        "meta_epoch": "2025-11-30T18:57:44.502624",
        "meta_mean_motion": 14.96904917,
        "meta_eccentricity": 0.00065248,
        "meta_inclination": 86.3392,
        "meta_ra_of_asc_node": 338.7285,
        "meta_arg_of_pericenter": 8.9727,
        "meta_mean_anomaly": 165.6369,
        "meta_ephemeris_type": 0,
        "meta_classification_type": "U",
        "meta_norad_cat_id": 46971,
        "meta_element_set_no": 999,
        "meta_rev_at_epoch": 64051,
        "meta_bstar": 0.0032009998,
        "meta_mean_motion_dot": 0.00036919,
        "meta_mean_motion_ddot": 0,
        "tle_line1": "1 46971U 97051ACD 25334.79009841  .00036919  00000+0  32010-2 0  9999",
        "tle_line2": "2 46971  86.3392 338.7285 0006524   8.9727 165.6369 14.96904917640518"
      },
      "geometry": {
        "type": "Point",
        "coordinates": [
          -21.262029879017412,
          23.92106943744287
        ]
      }
    },
    {
      "type": "Feature",
      "properties": {
        "norad_id": 46974,
        "name": "IRIDIUM 33 DEB",
        "group": "iridium-33-debris",
        "lat": -32.55691358344177,
        "lon": -68.64729345628263,
        "alt_km": 683.4276744154913,
        "timestamp": "2025-12-04T05:42:43.758049+00:00",
        "meta_object_name": "IRIDIUM 33 DEB",
        "meta_object_id": "1997-051ACG",
        "meta_epoch": "2025-12-03T15:25:18.733152",
        "meta_mean_motion": 14.43893104,
        "meta_eccentricity": 0.00960014,
        "meta_inclination": 86.2979,
        "meta_ra_of_asc_node": 109.2433,
        "meta_arg_of_pericenter": 216.6177,
        "meta_mean_anomaly": 142.8439,
        "meta_ephemeris_type": 0,
        "meta_classification_type": "U",
        "meta_norad_cat_id": 46974,
        "meta_element_set_no": 999,
        "meta_rev_at_epoch": 57377,
        "meta_bstar": 0.0066247967,
        "meta_mean_motion_dot": 0.0002397,
        "meta_mean_motion_ddot": 0,
        "tle_line1": "1 46974U 97051ACG 25337.64257793  .00023970  00000+0  66248-2 0  9993",
        "tle_line2": "2 46974  86.2979 109.2433 0096001 216.6177 142.8439 14.43893104573778"
      },
      "geometry": {
        "type": "Point",
        "coordinates": [
          -68.64729345628263,
          -32.55691358344177
        ]
      }
    },
    {
      "type": "Feature",
      "properties": {
        "norad_id": 46979,
        "name": "IRIDIUM 33 DEB",
        "group": "iridium-33-debris",
        "lat": -67.66095366975905,
        "lon": 43.52057885618776,
        "alt_km": 594.9257072534583,
        "timestamp": "2025-12-04T05:42:43.758059+00:00",
        "meta_object_name": "IRIDIUM 33 DEB",
        "meta_object_id": "1997-051ACM",
        "meta_epoch": "2025-12-01T11:51:13.074912",
        "meta_mean_motion": 14.88074464,
        "meta_eccentricity": 0.00285955,
        "meta_inclination": 86.3339,
        "meta_ra_of_asc_node": 53.769,
        "meta_arg_of_pericenter": 262.5043,
        "meta_mean_anomaly": 97.2933,
        "meta_ephemeris_type": 0,
        "meta_classification_type": "U",
        "meta_norad_cat_id": 46979,
        "meta_element_set_no": 999,
        "meta_rev_at_epoch": 35261,
        "meta_bstar": 0.0059304432,
        "meta_mean_motion_dot": 0.00055309,
        "meta_mean_motion_ddot": 0,
        "tle_line1": "1 46979U 97051ACM 25335.49390133  .00055309  00000+0  59304-2 0  9991",
        "tle_line2": "2 46979  86.3339  53.7690 0028595 262.5043  97.2933 14.88074464352616"
      },
      "geometry": {
        "type": "Point",
        "coordinates": [
          43.52057885618776,
          -67.66095366975905
        ]
      }
    }
  ]
}